NORAD_CAT_ID,OBJECT_NAME,OBJECT_TYPE,EPOCH,MEAN_MOTION,ECCENTRICITY,INCLINATION,RA_OF_ASC_NODE,ARG_OF_PERICENTER,MEAN_ANOMALY,BSTAR,MEAN_MOTION_DOT,MEAN_MOTION_DDOT,TLE_LINE0,TLE_LINE1,TLE_LINE2,SEMIMAJOR_AXIS,PERIOD,APOGEE,PERIGEE,DECAYED
55748.0,STARLINK-5580,PAYLOAD,2023-12-11 13:47:43,14.98326314,0.0002945,69.9985,149.7759,273.3279,86.7543,-4.076e-06,-1.42e-06,0.0,0 STARLINK-5580,1 55748U 23028H   23345.57481357 -.00000142  00000-0 -40760-5 0  9992,2 55748  69.9985 149.7759 0002945 273.3279  86.7543 14.98326314 43340,6950.204,96.107,574.116,570.022,0.0
55748.0,STARLINK-5580,PAYLOAD,2023-12-11 20:12:16,14.9832845,0.0002865,69.9987,149.1028,273.3974,86.6857,1.7464e-05,1.15e-06,0.0,0 STARLINK-5580,1 55748U 23028H   23345.84185218  .00000115  00000-0  17464-4 0  9991,2 55748  69.9987 149.1028 0002865 273.3974  86.6857 14.98328450 43382,6950.198,96.107,574.054,570.071,0.0
55748.0,STARLINK-5580,PAYLOAD,2023-12-12 13:49:44,14.98327815,0.0002862,69.9988,147.2512,273.4607,86.6225,7.3904e-05,7.89e-06,0.0,0 STARLINK-5580,1 55748U 23028H   23346.57621184  .00000789  00000-0  73904-4 0  9997,2 55748  69.9988 147.2512 0002862 273.4607  86.6225 14.98327815 43496,6950.2,96.107,574.054,570.076,0.0
55748.0,STARLINK-5580,PAYLOAD,2023-12-12 20:14:16,14.98329691,0.0002835,69.999,146.5782,272.9662,87.1173,9.1016e-05,9.93e-06,0.0,0 STARLINK-5580,1 55748U 23028H   23346.84325062  .00000993  00000-0  91016-4 0  9994,2 55748  69.9990 146.5782 0002835 272.9662  87.1173 14.98329691 43532,6950.194,96.107,574.029,570.088,0.0
55748.0,STARLINK-5580,PAYLOAD,2023-12-13 13:51:45,14.98334746,0.0002837,69.9993,144.7259,276.3996,83.684,0.00012228,1.366e-05,0.0,0 STARLINK-5580,1 55748U 23028H   23347.57760585  .00001366  00000-0  12228-3 0  9990,2 55748  69.9993 144.7259 0002837 276.3996  83.6840 14.98334746 43645,6950.178,96.107,574.015,570.071,0.0
55748.0,STARLINK-5580,PAYLOAD,2023-12-13 20:16:13,14.98375292,0.0002826,69.9991,144.0527,281.3638,78.7203,0.00051507,6.065e-05,0.0,0 STARLINK-5580,1 55748U 23028H   23347.84460581  .00006065  00000-0  51507-3 0  9997,2 55748  69.9991 144.0527 0002826 281.3638  78.7203 14.98375292 43684,6950.053,96.104,573.882,569.954,0.0
55748.0,STARLINK-5580,PAYLOAD,2023-12-14 13:53:45,14.9833712,0.000291,69.9993,142.2026,277.3174,82.7655,3.2208e-05,2.91e-06,0.0,0 STARLINK-5580,1 55748U 23028H   23348.57899534  .00000291  00000-0  32208-4 0  9995,2 55748  69.9993 142.2026 0002910 277.3174  82.7655 14.98337120 43790,6950.171,96.107,574.058,570.013,0.0
55748.0,STARLINK-5580,PAYLOAD,2023-12-14 20:18:17,14.98332886,0.0002923,69.9987,141.5287,263.4622,96.6204,-4.243e-05,-5.99e-06,0.0,0 STARLINK-5580,1 55748U 23028H   23348.84603732 -.00000599  00000-0 -42430-4 0  9999,2 55748  69.9987 141.5287 0002923 263.4622  96.6204 14.98332886 43835,6950.184,96.107,574.081,570.017,0.0
55748.0,STARLINK-5580,PAYLOAD,2023-12-15 12:19:38,14.98334748,0.0002503,69.9991,139.8466,250.8094,109.2795,-0.00032894,-4.016e-05,0.0,0 STARLINK-5580,1 55748U 23028H   23349.51364481 -.00004016  00000-0 -32894-3 0  9999,2 55748  69.9991 139.8466 0002503 250.8094 109.2795 14.98334748 43932,6950.178,96.107,573.783,570.304,0.0
55748.0,STARLINK-5580,PAYLOAD,2023-12-15 13:55:46,14.98333607,0.0002475,69.9992,139.678,250.3643,109.7249,-0.00031675,-3.87e-05,0.0,0 STARLINK-5580,1 55748U 23028H   23349.58040491 -.00003870  00000-0 -31675-3 0  9991,2 55748  69.9992 139.6780 0002475 250.3643 109.7249 14.98333607 43946,6950.182,96.107,573.767,570.327,0.0
55748.0,STARLINK-5580,PAYLOAD,2023-12-15 20:20:19,14.9833401,0.0002482,69.9992,139.0051,252.0967,107.9921,-0.00032714,-3.994e-05,0.0,0 STARLINK-5580,1 55748U 23028H   23349.84744425 -.00003994  00000-0 -32714-3 0  9990,2 55748  69.9992 139.0051 0002482 252.0967 107.9921 14.98334010 43987,6950.18,96.107,573.771,570.32,0.0
55748.0,STARLINK-5580,PAYLOAD,2023-12-16 12:21:39,14.98320816,0.0002575,69.9992,137.3209,264.1173,95.9692,4.675e-06,-3.7e-07,0.0,0 STARLINK-5580,1 55748U 23028H   23350.51504411 -.00000037  00000-0  46750-5 0  9996,2 55748  69.9992 137.3209 0002575 264.1173  95.9692 14.98320816 44081,6950.221,96.108,573.876,570.297,0.0
55748.0,STARLINK-5580,PAYLOAD,2023-12-16 13:57:47,14.98320889,0.0002577,69.9993,137.1525,264.0924,95.9941,6.5541e-06,-1.5e-07,0.0,0 STARLINK-5580,1 55748U 23028H   23350.58180459 -.00000015  00000-0  65541-5 0  9990,2 55748  69.9993 137.1525 0002577 264.0924  95.9941 14.98320889 44094,6950.221,96.108,573.877,570.295,0.0
55748.0,STARLINK-5580,PAYLOAD,2023-12-16 20:22:20,14.9832242,0.0002555,69.9993,136.4792,264.9939,95.0928,2.6609e-05,2.24e-06,0.0,0 STARLINK-5580,1 55748U 23028H   23350.84884484  .00000224  00000-0  26609-4 0  9990,2 55748  69.9993 136.4792 0002555 264.9939  95.0928 14.98322420 44137,6950.216,96.107,573.857,570.306,0.0
55748.0,STARLINK-5580,PAYLOAD,2023-12-17 12:23:40,14.98325815,0.000276,69.9989,134.7954,270.3772,89.7071,0.00015236,1.725e-05,0.0,0 STARLINK-5580,1 55748U 23028H   23351.51644234  .00001725  00000-0  15236-3 0  9992,2 55748  69.9989 134.7954 0002760 270.3772  89.7071 14.98325815 44238,6950.206,96.107,573.989,570.153,0.0
55748.0,STARLINK-5580,PAYLOAD,2023-12-17 13:59:48,14.98326356,0.0002756,69.999,134.6272,270.4017,89.6826,0.000157,1.781e-05,0.0,0 STARLINK-5580,1 55748U 23028H   23351.58320225  .00001781  00000-0  15700-3 0  9998,2 55748  69.9990 134.6272 0002756 270.4017  89.6826 14.98326356 44249,6950.204,96.107,573.985,570.154,0.0
55748.0,STARLINK-5580,PAYLOAD,2023-12-17 18:48:12,14.98329254,0.0002466,69.9996,134.1224,267.1027,92.985,0.00021886,2.519e-05,0.0,0 STARLINK-5580,1 55748U 23028H   23351.78347942  .00002519  00000-0  21886-3 0  9997,2 55748  69.9996 134.1224 0002466 267.1027  92.9850 14.98329254 44276,6950.195,96.107,573.774,570.346,0.0
55748.0,STARLINK-5580,PAYLOAD,2023-12-18 12:25:41,14.98332105,0.0002368,70.0002,132.2728,252.8844,107.2056,0.00011034,1.224e-05,0.0,0 STARLINK-5580,1 55748U 23028H   23352.51783983  .00001224  00000-0  11034-3 0  9994,2 55748  70.0002 132.2728 0002368 252.8844 107.2056 14.98332105 44383,6950.186,96.107,573.697,570.406,0.0
55748.0,STARLINK-5580,PAYLOAD,2023-12-18 14:01:49,14.9833169,0.0002376,70.0003,132.1044,253.0635,107.0263,0.000107,1.184e-05,0.0,0 STARLINK-5580,1 55748U 23028H   23352.58459995  .00001184  00000-0  10700-3 0  9998,2 55748  70.0003 132.1044 0002376 253.0635 107.0263 14.98331690 44391,6950.188,96.107,573.704,570.401,0.0
55748.0,STARLINK-5580,PAYLOAD,2023-12-18 18:50:13,14.98330753,0.0002388,70.0003,131.5993,252.3958,107.6941,9.1659e-05,1.001e-05,0.0,0 STARLINK-5580,1 55748U 23028H   23352.78488067  .00001001  00000-0  91659-4 0  9993,2 55748  70.0003 131.5993 0002388 252.3958 107.6941 14.98330753 44422,6950.191,96.107,573.715,570.396,0.0
55748.0,STARLINK-5580,PAYLOAD,2023-12-19 14:03:50,14.98335165,0.0002765,70.0001,129.5802,255.7293,104.3559,-2.9169e-05,-4.41e-06,0.0,0 STARLINK-5580,1 55748U 23028H   23353.58599863 -.00000441  00000-0 -29169-4 0  9995,2 55748  70.0001 129.5802 0002765 255.7293 104.3559 14.98335165 44548,6950.177,96.107,573.964,570.12,0.0
55748.0,STARLINK-5580,PAYLOAD,2023-12-19 18:52:14,14.98331921,0.0002951,69.9996,129.0745,263.8518,96.2305,-7.3831e-05,-9.74e-06,0.0,0 STARLINK-5580,1 55748U 23028H   23353.78628152 -.00000974  00000-0 -73831-4 0  9997,2 55748  69.9996 129.0745 0002951 263.8518  96.2305 14.98331921 44573,6950.187,96.107,574.103,570.001,0.0
55748.0,STARLINK-5580,PAYLOAD,2023-12-20 14:05:52,14.98323928,0.000279,70.0003,127.0548,259.3492,100.7353,-5.6074e-05,-7.62e-06,0.0,0 STARLINK-5580,1 55748U 23028H   23354.58740761 -.00000762  00000-0 -56074-4 0  9992,2 55748  70.0003 127.0548 0002790 259.3492 100.7353 14.98323928 44691,6950.212,96.107,574.016,570.138,0.0
55748.0,STARLINK-5580,PAYLOAD,2023-12-20 18:54:16,14.98326069,0.000271,70.0003,126.5499,255.0088,105.0771,-3.9166e-05,-5.6e-06,0.0,0 STARLINK-5580,1 55748U 23028H   23354.78768621 -.00000560  00000-0 -39166-4 0  9998,2 55748  70.0003 126.5499 0002710 255.0088 105.0771 14.98326069 44721,6950.205,96.107,573.954,570.187,0.0
55748.0,STARLINK-5580,PAYLOAD,2023-12-21 14:07:52,14.98326793,0.0002805,70.0004,124.5306,258.3598,101.7246,9.3489e-05,1.023e-05,0.0,0 STARLINK-5580,1 55748U 23028H   23355.58880333  .00001023  00000-0  93489-4 0  9993,2 55748  70.0004 124.5306 0002805 258.3598 101.7246 14.98326793 44841,6950.203,96.107,574.017,570.118,0.0
55748.0,STARLINK-5580,PAYLOAD,2023-12-21 15:44:00,14.98326825,0.0002805,70.0004,124.3623,258.3923,101.6922,9.263e-05,1.012e-05,0.0,0 STARLINK-5580,1 55748U 23028H   23355.65556355  .00001012  00000-0  92630-4 0  9990,2 55748  70.0004 124.3623 0002805 258.3923 101.6922 14.98326825 44850,6950.203,96.107,574.017,570.118,0.0
55748.0,STARLINK-5580,PAYLOAD,2023-12-22 10:57:37,14.98328461,0.0002856,70.0004,122.3426,261.0474,99.0362,9.7709e-05,1.073e-05,0.0,0 STARLINK-5580,1 55748U 23028H   23356.45668444  .00001073  00000-0  97709-4 0  9991,2 55748  70.0004 122.3426 0002856 261.0474  99.0362 14.98328461 44976,6950.198,96.107,574.048,570.078,0.0
55748.0,STARLINK-5580,PAYLOAD,2023-12-22 14:09:53,14.98328807,0.0002756,70.0005,122.0057,260.3624,99.7224,0.00011472,1.276e-05,0.0,0 STARLINK-5580,1 55748U 23028H   23356.59020424  .00001276  00000-0  11472-3 0  9993,2 55748  70.0005 122.0057 0002756 260.3624  99.7224 14.98328807 44992,6950.197,96.107,573.977,570.146,0.0
55748.0,STARLINK-5580,PAYLOAD,2023-12-22 18:58:17,14.98332236,0.0002811,70.0004,121.5011,260.7746,99.3095,0.00013323,1.497e-05,0.0,0 STARLINK-5580,1 55748U 23028H   23356.79048159  .00001497  00000-0  13323-3 0  9992,2 55748  70.0004 121.5011 0002811 260.7746  99.3095 14.98332236 45024,6950.186,96.107,574.005,570.097,0.0
55748.0,STARLINK-5580,PAYLOAD,2023-12-23 10:59:38,14.9832912,0.0003095,70.0008,119.8182,270.0936,89.9868,1.7388e-05,1.14e-06,0.0,0 STARLINK-5580,1 55748U 23028H   23357.45808639  .00000114  00000-0  17388-4 0  9994,2 55748  70.0008 119.8182 0003095 270.0936  89.9868 14.98329120 45129,6950.196,96.107,574.212,569.91,0.0
